{
  "type": "FeatureCollection",
  "features": [
    {
      "type": "Feature",
      "properties": {
        "uid": "1",
        "name": "London",
        "street": "",
        "country": "",
        "state": "",
        "county": "",
        "city": "",
        "website": "",
        "description": "London is the capital and largest city of the United Kingdom, standing on the River Thames in southeast England. \n\nThe queen wears a fancy hat here."
      },
      "geometry": {
        "type": "Point",
        "coordinates": [
          -0.1276,
          51.5072
        ]
      }
    },
    {
      "type": "Feature",
      "properties": {
        "uid": "2",
        "name": "New York City",
        "worth stopping": true,
        "description": "New York City is the most populous city in the United States, famous for its skyline, culture, and global influence."
      },
      "geometry": {
        "type": "Point",
        "coordinates": [
          -74.006,
          40.7128
        ]
      }
    },
    {
      "type": "Feature",
      "properties": {
        "uid": "3",
        "name": "Tokyo",
        "worth stopping": true,
        "description": "Tokyo is the capital of Japan and one of the world's most populous metropolitan areas, known for its modern architecture and culture."
      },
      "geometry": {
        "type": "Point",
        "coordinates": [
          139.6503,
          35.6762
        ]
      }
    },
    {
      "type": "Feature",
      "properties": {
        "uid": "4",
        "name": "The Henry Ford Museum of American Innovation",
        "street": "20900 Oakwood Blvd, Dearborn, MI 48124",
        "country": "United States",
        "state": "Michigan",
        "county": "Wayne",
        "city": "Dearborn",
        "website": "https://www.thehenryford.org/",
        "description": "Henry Ford decided to buy all of American history and put it in the world's largest indoor-outdoor museum complex (12 acres indoors, 240 acres outdoors). It's an aerospace museum, a living history museum, automobile, railroad, and science museum,Including:\n<br>\n<br>1.) All presidential limosines, including the ones John F. Kennedy and Ronald Reagan were shot in. \n<br>2.) The chair Abraham Lincoln was assassinated in.\n<br>3.) A 1:1 replica of Independence Hall.\n<br>4.) The Wright Brother's Bicycle shop where they developed the first airplane.\n<br>5.) Thomas Edison's Menlo Park Laboratory Complex.\n<br>6.) Rosa Park's bus. \n<br>7.) The homes and farms of Henry Ford, Thomas Edison, and Harvey Firstone.",
        "worth stopping": true,
        "museum": true
      },
      "geometry": {
        "type": "Point",
        "coordinates": [
          -83.2347848,
          42.3033571
        ]
      }
    },
    {
      "type": "Feature",
      "properties": {
        "uid": "5",
        "name": "Detroit Institute of Arts",
        "street": "5200 Woodward Ave, Detroit, MI 48202",
        "country": "United States",
        "state": "Michigan",
        "county": "Wayne",
        "city": "Detroit",
        "website": "https://dia.org/",
        "description": "See all the art Detroit purchased when it was the richest city in the world. There's also an entire Egyptian tomb and part of a European castle in here.",
        "worth stopping": true,
        "museum": true
      },
      "geometry": {
        "type": "Point",
        "coordinates": [
          -83.0646391,
          42.35938
        ]
      }
    },
    {
      "type": "Feature",
      "properties": {
        "uid": "6",
        "name": "Detroit Historical Museum",
        "street": "5401 Woodward Ave, Detroit, MI 48202",
        "country": "United States",
        "state": "Michigan",
        "county": "Wayne",
        "city": "Detroit",
        "website": "https://www.detroithistorical.org/visit/detroit-historical-museum",
        "description": "Remember when Detroit was the 5th largest city in the United States of America and the richest city in the world? This museum sure does. Featuring assembly lines, a recreation of historical Detroit streets - including armored personnel carriers from all those times the Michigan National Guard had to quell riots.",
        "worth stopping": true,
        "museum": true
      },
      "geometry": {
        "type": "Point",
        "coordinates": [
          -83.0672387,
          42.3597519
        ]
      }
    },
    {
      "type": "Feature",
      "properties": {
        "uid": "7",
        "name": "Motown Museum",
        "street": "2648 Berry Gordy Jr. Boulevard, 2648 W Grand Blvd, Detroit, MI 48208",
        "country": "United States",
        "state": "Detroit",
        "county": "Wayne",
        "city": "Detroit",
        "website": "http://www.motownmuseum.org/",
        "description": "Music writer and producer Berry Gordy bought a bunch of houses, turned them into a music studio, and approached music production like a Detroit assembly line - turning artists into stars through rigorous trainining and quality control. This museum is where the Jackson 5, Stevie Wonder, Marvin Gaye, The Supremes, and the Four Tops got their start.",
        "worth stopping": true,
        "museum": true
      },
      "geometry": {
        "type": "Point",
        "coordinates": [
          -83.0884896,
          42.3641253
        ]
      }
    },
    {
      "type": "Feature",
      "properties": {
        "uid": "8",
        "name": "Cranbrook Educational Community",
        "street": "380 Lone Pine Rd, Bloomfield Hills, MI 48304",
        "country": "United States",
        "state": "Michigan",
        "county": "Oakland",
        "city": "Bloomfield Hills",
        "website": "http://housegardens.cranbrook.edu/",
        "description": "An Art Deco museum-garden complex created when Detroit was the richest city in the world. Featuring the Cranbrook Art Museum, the Cranbrook Institute of Science, and the Cranbrook House and Gardens.",
        "worth stopping": true,
        "park": true,
        "museum": true
      },
      "geometry": {
        "type": "Point",
        "coordinates": [
          -83.2454177,
          42.5688988
        ]
      }
    },
    {
      "type": "Feature",
      "properties": {
        "uid": "9",
        "name": "Gilmore Car Museum",
        "street": "6865 Hickory Rd, Hickory Corners, MI 49060",
        "country": "United States",
        "state": "Michigan",
        "county": "Barry",
        "city": "Hickory Corners",
        "website": "http://www.gilmorecarmuseum.org/",
        "description": "What's better than one building full of cars? 14 buildings full of cars set in an entire town built just for one car museum. It's 90 acres of cars.",
        "worth stopping": true,
        "museum": true
      },
      "geometry": {
        "type": "Point",
        "coordinates": [
          -85.4200364,
          42.4401885
        ]
      }
    },
    {
      "type": "Feature",
      "properties": {
        "uid": "10",
        "name": "Sleeping bear Dunes National Lakeshore",
        "street": "9922 W Front St, Empire, MI 49630",
        "country": "",
        "state": "Michigan",
        "county": "",
        "city": "",
        "website": "http://www.nps.gov/slbe/index.htm",
        "description": "35 miles of 450ft tall sand dunes next to the largest freshwater lakes in the world.",
        "worth stopping": true,
        "park": true
      },
      "geometry": {
        "type": "Point",
        "coordinates": [
          -86.0536281,
          44.8732063
        ]
      }
    },
    {
      "type": "Feature",
      "properties": {
        "uid": "11",
        "name": "Mackinac Island State Park",
        "street": "7029 Huron Rd, Mackinac Island, MI 49757",
        "country": "United States",
        "state": "Michigan",
        "county": "",
        "city": "",
        "website": "https://www.mackinacparks.com/attraction/mackinac-island-state-parks/",
        "description": "Mackinac Island was the second national park after Yellowstone, but Michigan wanted it back. The state that is the heart of the American automotive industry banned cars on this island to preserve its beauty.",
        "worth stopping": true,
        "park": true
      },
      "geometry": {
        "type": "Point",
        "coordinates": [
          -84.6208169,
          45.8592603
        ]
      }
    },
    {
      "type": "Feature",
      "properties": {
        "uid": "12",
        "name": "S.S. City of Milwaukee",
        "street": "99 Arthur St, Manistee, MI 49660",
        "country": "United States",
        "state": "Michigan",
        "county": "",
        "city": "",
        "website": "http://www.carferry.com/",
        "description": "The SS City of Milkwaukee is the last railroad ferry on the Great Lakes. It's also a museum, hotel, and haunted house depending on the time of year. The USCGC Acacia is also docked as a museum ship.",
        "worth stopping": true,
        "museum": true
      },
      "geometry": {
        "type": "Point",
        "coordinates": [
          -86.3160162,
          44.2595201
        ]
      }
    },
    {
      "type": "Feature",
      "properties": {
        "uid": "13",
        "name": "S.S. Milwaukee Clipper",
        "street": "2098 Lakeshore Dr, Muskegon, MI 49441",
        "country": "United States",
        "state": "Michigan",
        "county": "",
        "city": "Muskegon",
        "website": "",
        "description": "It's museum passenger/car ferry ship built in 1904 and modernized in the 1950s. The resulting ship feels uniquely like a cross between an insane-asylum and a bus.",
        "worth stopping": true,
        "museum": true
      },
      "geometry": {
        "type": "Point",
        "coordinates": [
          -86.2963086,
          43.22165
        ]
      }
    },
    {
      "type": "Feature",
      "properties": {
        "uid": "14",
        "name": "Gerald R. Ford Presidential Museum",
        "street": "303 Pearl St NW, Grand Rapids, MI 49504",
        "country": "United States",
        "state": "Michigan",
        "county": "",
        "city": "Grand Rapids",
        "website": "https://www.fordlibrarymuseum.gov/",
        "description": "Come see the Gerald R. Ford Presidential Museum where you can learn that President Gerald Ford did nothing wrong (in their opinion).",
        "worth stopping": true,
        "museum": true
      },
      "geometry": {
        "type": "Point",
        "coordinates": [
          -85.6776267,
          42.9683584
        ]
      }
    },
    {
      "type": "Feature",
      "properties": {
        "uid": "15",
        "name": "Pictured Rocks National Lakeshore",
        "street": "1505 Sand Point Rd, Munising, MI 49862",
        "country": "United States",
        "state": "Michigan",
        "county": "",
        "city": "",
        "website": "https://www.nps.gov/piro/index.htm",
        "description": "It's fancy rocks, waterfalls, sand dunes, and shipwrecks on the world's largest freshwater lake by surface area. The lake is 45F all year round, so enjoy the breeze - but don't go swimming.",
        "worth stopping": true,
        "park": true
      },
      "geometry": {
        "type": "Point",
        "coordinates": [
          -86.3189901,
          46.5687598
        ]
      }
    },
    {
      "type": "Feature",
      "properties": {
        "uid": "16",
        "name": "Top-of-the-Lake Snowmobile Museum",
        "street": "W11660 US-2, Naubinway, MI 49762",
        "country": "",
        "state": "",
        "county": "",
        "city": "",
        "website": "http://www.snowmobilemuseum.com/",
        "description": "Snowmobiles are awesome. I like them. The Upper Peninsula of Michigan is one of the snowiest location in the United States, and the snowmobile trails in the region reflect that.",
        "worth stopping": true,
        "museum": true
      },
      "geometry": {
        "type": "Point",
        "coordinates": [
          -85.4505549,
          46.0946446
        ]
      }
    },
    {
      "type": "Feature",
      "properties": {
        "uid": "17",
        "name": "Porcupine Mountains Wilderness State Park",
        "street": "33303 Headquarters Rd, Ontonagon, MI 49953",
        "country": "",
        "state": "Michigan",
        "county": "",
        "city": "",
        "website": "https://www.michigan.gov/recsearch/parks/Porkies",
        "description": "Waterfalls, dynamic cliffs, and a lake in the sky (Lake of the Clouds) in this stunning state park.",
        "worth stopping": true,
        "park": true
      },
      "geometry": {
        "type": "Point",
        "coordinates": [
          -89.8033419,
          46.7431196
        ]
      }
    },
    {
      "type": "Feature",
      "properties": {
        "uid": "18",
        "name": "Quincy Mine",
        "street": "49750 US-41, Hancock, MI 49930",
        "country": "United States",
        "state": "Michigan",
        "county": "",
        "city": "",
        "website": "http://www.quincymine.com/",
        "description": "A Michigan Upper Peninsula Copper mine that remains frightfully cold year round. Part of the Keweenaw National Historical Park.",
        "worth stopping": true
      },
      "geometry": {
        "type": "Point",
        "coordinates": [
          -88.5760186,
          47.1366519
        ]
      }
    },
    {
      "type": "Feature",
      "properties": {
        "uid": "19",
        "name": "SS Valley Camp",
        "street": "501 E Water St, Sault Ste. Marie, MI 49783",
        "country": "",
        "state": "",
        "county": "",
        "city": "",
        "website": "http://www.saulthistoricsites.com/",
        "description": "Come see a 1917 Great Lakes Freighter in its native habitat: next to a massive set of locks between Lake Superior and Lake Huron. The museum is in the actual cargo hold - a rarity among museum ships in the Great Lakes.",
        "worth stopping": true,
        "museum": true
      },
      "geometry": {
        "type": "Point",
        "coordinates": [
          -84.3363599,
          46.4995031
        ]
      }
    },
    {
      "type": "Feature",
      "properties": {
        "uid": "20",
        "name": "U.S.S. Edson",
        "street": "",
        "country": "United States",
        "state": "Michigan",
        "county": "",
        "city": "Bay City",
        "website": "http://www.svnsm.com/",
        "description": "The USS Edson is a 1958 Forrest-Sharman class destroyer. U.S. Navy veteran volunteers tend to mull about on deck. Interestingly, this ship museum lets you wander around the engine room with very little restrictions.",
        "worth stopping": true,
        "museum": true
      },
      "geometry": {
        "type": "Point",
        "coordinates": [
          -83.8688676,
          43.6144016
        ]
      }
    },
    {
      "type": "Feature",
      "properties": {
        "uid": "21",
        "name": "Air Zoo",
        "street": "6151 Portage Rd, Portage, MI 49002",
        "country": "United States",
        "state": "Michigan",
        "county": "",
        "city": "Portage",
        "website": "",
        "description": "The Air Zoo is a combined children's amusement park and aerospace museum. The flight simulators let you do barrel rolls and loops and I highly recommend them. Uniquely, the air zoo has a Curtiss Ascender, F-117 Nighthawk, SR-71B Blackbird",
        "worth stopping": true,
        "museum": true
      },
      "geometry": {
        "type": "Point",
        "coordinates": [
          -85.5573151,
          42.2274687
        ]
      }
    },
    {
      "type": "Feature",
      "properties": {
        "uid": "22",
        "name": "Sloan Museum",
        "street": "1221 E Kearsley St, Flint, MI 48503",
        "country": "United States",
        "state": "Michigan",
        "county": "Genesee",
        "city": "Flint",
        "website": "https://sloanlongway.org/sloan/",
        "description": "80,000 people used to work in 37 General Motors Automotive Factories in Flint, Michigan. Today that number is less than 8000. All the while General Motors placed its prototypes and successes in this local museum named after the CEO that took General Motors to its zenith when it held 50% market share in the U.S. auto market.",
        "worth stopping": true,
        "museum": true
      },
      "geometry": {
        "type": "Point",
        "coordinates": [
          -83.6792139,
          43.0232466
        ]
      }
    },
    {
      "type": "Feature",
      "properties": {
        "uid": "23",
        "name": "USS Silversides Submarine Museum",
        "street": "1346 Bluff St, Muskegon, MI 49441",
        "country": "United States",
        "state": "Michigan",
        "county": "",
        "city": "Muskegon",
        "website": "http://www.silversidesmuseum.org/",
        "description": "A World War Two Gato-class submarine that sunk 23 enemy ships in the Pacific Theater is now available for tour in Muskegon, Michigan - a place that is most definitely not the ocean.",
        "worth stopping": true,
        "museum": true
      },
      "geometry": {
        "type": "Point",
        "coordinates": [
          -86.3332715,
          43.2297345
        ]
      }
    },
    {
      "type": "Feature",
      "properties": {
        "uid": "24",
        "name": "Icebreaker Mackinaw Maritime Museum",
        "street": "131 S Huron Ave, Mackinaw City, MI 49701",
        "country": "",
        "state": "",
        "county": "",
        "city": "",
        "website": "http://www.themackinaw.org/",
        "description": "The Great Lakes freeze during the winter, but ships still need to move. The USCGC Mackinaw is a 1944 icebreaker designed specifically for Great Lakes service to extend the shipping season. As a result it looks unique compared to other icebreakers.",
        "worth stopping": true,
        "museum": true
      },
      "geometry": {
        "type": "Point",
        "coordinates": [
          -84.7202514,
          45.7797207
        ]
      }
    },
    {
      "type": "Feature",
      "properties": {
        "uid": "25",
        "name": "Tahquamenon Falls State Park",
        "street": "Tahquamenon River, Michigan, Paradise, MI 49768",
        "country": "United States",
        "state": "Michigan",
        "county": "",
        "city": "",
        "website": "https://www.michigan.gov/recsearch/parks/TahquamenonFalls",
        "description": "Copper-colored 50ft waterfalls in the rocky wilderness of the Upper Peninsula of Michigan.",
        "worth stopping": true,
        "park": true
      },
      "geometry": {
        "type": "Point",
        "coordinates": [
          -85.256821,
          46.574941
        ]
      }
    },
    {
      "type": "Feature",
      "properties": {
        "uid": "26",
        "name": "National Museum of the Great Lakes",
        "street": "1701 Front St, Toledo, OH 43605",
        "country": "United States",
        "state": "Ohio",
        "county": "",
        "city": "Toledo",
        "website": "http://www.nmgl.org/",
        "description": "The National Museum of the Great Lakes features the SS Colonel James M. Schoonmaker, a 1911 Great Lakes iron ore freighter. Despite its nautical appearances, the crew quarters on the stern is lavishly decorated like a Victorian mansion.",
        "worth stopping": true,
        "museum": true
      },
      "geometry": {
        "type": "Point",
        "coordinates": [
          -83.5154105,
          41.6565951
        ]
      }
    },
    {
      "type": "Feature",
      "properties": {
        "uid": "27",
        "name": "Rutherford B. Hayes Presidential Library and Museums",
        "street": "Spiegel Grove, Fremont, OH 43420",
        "country": "",
        "state": "Ohio",
        "county": "",
        "city": "",
        "website": "",
        "description": "It's called the Rutherford B. Hayes Presidential Library and Museum, but it should be more accurately titled the \"Medal of Honor Recipient Webb C. Hayes Museum, featuring my dad who did nothing wrong: President Rutherford B. Hayes\".",
        "worth stopping": true,
        "museum": true
      },
      "geometry": {
        "type": "Point",
        "coordinates": [
          -83.1296514,
          41.3417142
        ]
      }
    },
    {
      "type": "Feature",
      "properties": {
        "uid": "28",
        "name": "Cedar Point",
        "street": "1 Cedar Point Dr, Sandusky, OH 44870",
        "country": "United States",
        "state": "Ohio",
        "county": "",
        "city": "Sandusky",
        "website": "https://www.cedarpoint.com/",
        "description": "19 World class rollercoasters on the eleventh largest freshwater lake in the world. Winner of Best Amusement Park In The World for 16 consecutive years. Featuring multiple rollercoasters that have all been ranked as best in the world at the time of their opening.",
        "worth stopping": true,
        "amusement park": true
      },
      "geometry": {
        "type": "Point",
        "coordinates": [
          -82.6837047,
          41.482208
        ]
      }
    },
    {
      "type": "Feature",
      "properties": {
        "uid": "29",
        "name": "National Museum of the United States Air Force",
        "street": "1100 Spaatz St, Dayton, OH 45433",
        "country": "",
        "state": "",
        "county": "",
        "city": "",
        "website": "https://www.nationalmuseum.af.mil/",
        "description": "This is THE military aviation museum. The largest military aviation museum in the world with 360 aircraft and missiles on display. Come see presidential aircraft, nuclear missiles and bombs, stealth fighters and bombers, spy satellites, experimental aircraft, and friendly recruiters who would like you to join the United States Air Force. Admission is free.",
        "worth stopping": true,
        "museum": true
      },
      "geometry": {
        "type": "Point",
        "coordinates": [
          -84.1122408,
          39.7804387
        ]
      }
    },
    {
      "type": "Feature",
      "properties": {
        "uid": "30",
        "name": "Cincinnati Museum Center",
        "street": "1301 Western Ave, Cincinnati, OH 45203",
        "country": "",
        "state": "Ohio",
        "county": "",
        "city": "",
        "website": "http://www.cincymuseum.org/",
        "description": "The train station that was the basis for DC's Hall of Justice is now a museum center. Somehow there is an entire steamboat (complete with historical waterfront), cave, ice cave, and forest in the basement. Also dinosaurs, mummies, and astronauts. It is just as glorious as it sounds.",
        "worth stopping": true,
        "museum": true
      },
      "geometry": {
        "type": "Point",
        "coordinates": [
          -84.5375176,
          39.1099549
        ]
      }
    },
    {
      "type": "Feature",
      "properties": {
        "uid": "31",
        "name": "Columbus Zoo and Aquarium",
        "street": "4850 W Powell Rd, Powell, OH 43065",
        "country": "United States",
        "state": "Ohio",
        "county": "",
        "city": "Powell",
        "website": "https://www.columbuszoo.org/",
        "description": "Jack Hanna's legendary zoo with 800 species of animals, including manatees, lions, leopards, tigers, elephants, lynxes, sea lions and seals, cheetahs, sea turtles, penguins, koalas, moose, river otters, pallas cats, polar bears, etc. There's also two rollercoasters and an outstanding waterpark built into the zoo.",
        "worth stopping": true,
        "amusement park": true
      },
      "geometry": {
        "type": "Point",
        "coordinates": [
          -83.1175949,
          40.1562423
        ]
      }
    },
    {
      "type": "Feature",
      "properties": {
        "uid": "32",
        "name": "Cuyahoga Valley National Park",
        "street": "8176 Brandywine Rd, Northfield, OH 44067",
        "country": "",
        "state": "",
        "county": "",
        "city": "",
        "website": "https://www.nps.gov/cuva/index.htm",
        "description": "Cuyahoga Valley National park doesn't look like much until you peer into the 65ft deep rocky ravine filled with 100 waterfalls. Brandywine Falls by itself is a stunning attraction that is well worth a look.",
        "worth stopping": true,
        "park": true
      },
      "geometry": {
        "type": "Point",
        "coordinates": [
          -81.5390956,
          41.2769095
        ]
      }
    },
    {
      "type": "Feature",
      "properties": {
        "uid": "33",
        "name": "Wordens Ledges",
        "street": "Wordens Ledges Loop Trail, Hinckley, OH 44233",
        "country": "United States",
        "state": "Ohio",
        "county": "",
        "city": "",
        "website": "https://www.clevelandmetroparks.com/parks/visit/parks/hinckley-reservation/worden-s-ledges",
        "description": "Terrifying century old rock visiages carved into the face of a cliff deep in the woods. I genuinely felt I was going to get murdered despite being in the safe suburbs of Cleveland.",
        "worth stopping": true,
        "park": true
      },
      "geometry": {
        "type": "Point",
        "coordinates": [
          -81.7171137,
          41.2024738
        ]
      }
    },
    {
      "type": "Feature",
      "properties": {
        "uid": "34",
        "name": "Serpent Mound",
        "street": "3850 OH-73, Peebles, OH 45660",
        "country": "",
        "state": "",
        "county": "",
        "city": "",
        "website": "",
        "description": "Native Americans built a giant snake shaped mound on top of a hill more than 2000 years ago. It's still there snaking in the woods.",
        "worth stopping": true,
        "park": true
      },
      "geometry": {
        "type": "Point",
        "coordinates": [
          -83.4302108,
          39.0257707
        ]
      }
    },
    {
      "type": "Feature",
      "properties": {
        "uid": "35",
        "name": "Warren G. Harding Presidential Library and Museum",
        "street": "380 Mt Vernon Ave, Marion, OH 43302",
        "country": "United States",
        "state": "Ohio",
        "county": "",
        "city": "",
        "website": "https://hardingpresidentialsites.org/",
        "description": "President Warren G. Harding promised to \"Return to Normalcy\" and \"Make America Great Again\" following American overseas interventionism, enforced political correctness, percieved weakness on immigration, and a plague. A favorite of newspaper reporters due owning his own newspaper where the country could hear his thoughts, Harding also presided over a corrupt cabinet, womanized, then died of a heart attack after being strained from touring the country for massive rallies. This is his museum and tomb.",
        "worth stopping": true,
        "museum": true
      },
      "geometry": {
        "type": "Point",
        "coordinates": [
          -83.1219485,
          40.5867728
        ]
      }
    },
    {
      "type": "Feature",
      "properties": {
        "uid": "36",
        "name": "McKinley Presidential Library and Museum",
        "street": "800 Mc Kinley Monument Dr NW, Canton, OH 44708",
        "country": "",
        "state": "",
        "county": "",
        "city": "",
        "website": "https://mckinleymuseum.org/",
        "description": "President William McKinley followed the proud presidential tradition of being from Ohio and getting shot - which means his tomb is very nice because the nation was very sad. For some reason there's also dinosaurs in his museum.",
        "worth stopping": true,
        "museum": true
      },
      "geometry": {
        "type": "Point",
        "coordinates": [
          -81.3933425,
          40.8062975
        ]
      }
    },
    {
      "type": "Feature",
      "properties": {
        "uid": "37",
        "name": "The Cleveland Museum of Art",
        "street": "11150 East Blvd, Cleveland, OH 44106",
        "country": "",
        "state": "",
        "county": "",
        "city": "",
        "website": "https://www.clevelandart.org/",
        "description": "Cleveland used to be rich, bought a lot of nice art, and made the art museum free forever. Yes, they have the Etruscan Boar Vessel and the Majapahit piggy bank.",
        "worth stopping": true,
        "museum": true
      },
      "geometry": {
        "type": "Point",
        "coordinates": [
          -81.6118888,
          41.5090904
        ]
      }
    },
    {
      "type": "Feature",
      "properties": {
        "uid": "38",
        "name": "Kings Island",
        "street": "6300 Kings Island Drive, Mason, OH 45040",
        "country": "United States",
        "state": "Ohio",
        "county": "",
        "city": "",
        "website": "https://www.visitkingsisland.com/",
        "description": "The Eiffel Tower, 15 rollercoasters, including a homemade 7361ft ride through the woods. Kings Island is one of the world's greatest amusement parks which revived the public's interest in rollercoasters following the decline of the amusement industry in the 1970s.",
        "worth stopping": true,
        "amusement park": true
      },
      "geometry": {
        "type": "Point",
        "coordinates": [
          -84.2671321,
          39.3434626
        ]
      }
    },
    {
      "type": "Feature",
      "properties": {
        "uid": "39",
        "name": "Hocking Hills State Park",
        "street": "19988 OH-664 Scenic, Logan, OH 43138",
        "country": "United States",
        "state": "Ohio",
        "county": "",
        "city": "Logan",
        "website": "https://ohiodnr.gov/go-and-do/plan-a-visit/find-a-property/hocking-hills-state-park",
        "description": "Caves and waterfalls, waterfalls in caves, rock overhangs, and gentle hikes. It's like Ohio is trying to trick you into thinking it's a nice place to be.",
        "worth stopping": true,
        "park": true
      },
      "geometry": {
        "type": "Point",
        "coordinates": [
          -82.5419707,
          39.4346212
        ]
      }
    },
    {
      "type": "Feature",
      "properties": {
        "uid": "40",
        "name": "Early Television Museum",
        "street": "5396 Franklin St, Hilliard, OH 43026",
        "country": "United States",
        "state": "Ohio",
        "county": "",
        "city": "Hilliard",
        "website": "http://www.earlytelevision.org/",
        "description": "Did you know you can make a television screen out of a single lightbulb and a spinning disc with holes in it? Learn about the wacky frontier of television when television stations went to bed for the evening, and the British could still manufacture electronics.",
        "worth stopping": true,
        "museum": true
      },
      "geometry": {
        "type": "Point",
        "coordinates": [
          -83.1614608,
          40.0343738
        ]
      }
    },
    {
      "type": "Feature",
      "properties": {
        "uid": "41",
        "name": "Trap History Museum",
        "street": "6106 Bausch Rd, Galloway, OH 43119",
        "country": "United States",
        "state": "Ohio",
        "county": "",
        "city": "",
        "website": "http://www.traphistorymuseum.com/",
        "description": "4000 traps of all types and historical periods located next to a public safety equipment supplier to remind them of the consequences should they fail. Come see 20ft giant bear trap that might be our only protection against Godzilla. Tours by appointment only - please call ahead of time.",
        "worth stopping": true,
        "museum": true
      },
      "geometry": {
        "type": "Point",
        "coordinates": [
          -83.1573322,
          39.906397
        ]
      }
    },
    {
      "type": "Feature",
      "properties": {
        "uid": "42",
        "name": "Age of Steam Roundhouse",
        "street": "",
        "country": "",
        "state": "",
        "county": "",
        "city": "",
        "website": "http://www.ageofsteamroundhouse.org/",
        "description": "You know how at most railroad museums the trains just sit there and don't do anything? The trains at the Age of Steam Roundhouse actually still run and you can ride in them. They also have a compressed air powered locomotive.",
        "worth stopping": true,
        "museum": true
      },
      "geometry": {
        "type": "Point",
        "coordinates": [
          -81.6647776,
          40.4792135
        ]
      }
    },
    {
      "type": "Feature",
      "properties": {
        "uid": "43",
        "name": "The Troll Hole Museum",
        "street": "228 E Main St, Alliance, OH 44601",
        "country": "",
        "state": "",
        "county": "",
        "city": "",
        "website": "http://thetrollhole.com/",
        "description": "Are you feeling too sane? Why not learn about trolls, see cellebrities turned into rolls, troll based cinema, and find out if Santa is really a troll. It's the world's largest troll collection.",
        "worth stopping": true,
        "museum": true
      },
      "geometry": {
        "type": "Point",
        "coordinates": [
          -81.1022525,
          40.9219451
        ]
      }
    },
    {
      "type": "Feature",
      "properties": {
        "uid": "44",
        "name": "Great Lakes Science Center",
        "street": "601 Erieside Ave, Cleveland, OH 44114",
        "country": "United States",
        "state": "Ohio",
        "county": "",
        "city": "Cleveland",
        "website": "",
        "description": "Featuring the NASA Glenn Visitor Center (with an actual Apollo capsule used for Skylab) and the Great Lakes Freighter William G Mather. The rest of the stuff is for kids.",
        "worth stopping": true,
        "museum": true
      },
      "geometry": {
        "type": "Point",
        "coordinates": [
          -81.696742,
          41.5073863
        ]
      }
    },
    {
      "type": "Feature",
      "properties": {
        "uid": "45",
        "name": "Rock and Roll Hall of Fame",
        "street": "1100 E 9th St, Cleveland, OH 44114",
        "country": "",
        "state": "",
        "county": "",
        "city": "",
        "website": "https://www.rockhall.com/",
        "description": "Memorabilia from history's greatest modern music performers. Located in Cleveland because some radio DJ here created the phrase ''Rock and Roll\".",
        "worth stopping": true,
        "museum": true
      },
      "geometry": {
        "type": "Point",
        "coordinates": [
          -81.6954268,
          41.5085201
        ]
      }
    },
    {
      "type": "Feature",
      "properties": {
        "uid": "46",
        "name": "Jungle Jims International Market Eastgate",
        "street": "4450 Eastgate S Dr, Cincinnati, OH 45245",
        "country": "",
        "state": "",
        "county": "",
        "city": "",
        "website": "http://www.junglejims.com/",
        "description": "Jungle Jims International Market literally has everything. This is the infinite IKEA of grocery stores. Yes there is a movie theater that only shows propaganda promoting the store that you are already in. Yes there is a bar. Yes there is a card game shop.",
        "worth stopping": true
      },
      "geometry": {
        "type": "Point",
        "coordinates": [
          -84.2736438,
          39.0932823
        ]
      }
    },
    {
      "type": "Feature",
      "properties": {
        "uid": "47",
        "name": "American Sign Museum",
        "street": "1330 Monmouth Ave, Cincinnati, OH 45225",
        "country": "",
        "state": "",
        "county": "",
        "city": "",
        "website": "http://www.americansignmuseum.org/",
        "description": "All the good signs all in a former sign factory. This museum fulfills mankind's truest desire to look at pretty flashing lights in funny shapes.",
        "worth stopping": true,
        "museum": true
      },
      "geometry": {
        "type": "Point",
        "coordinates": [
          -84.5402342,
          39.1434953
        ]
      }
    },
    {
      "type": "Feature",
      "properties": {
        "uid": "48",
        "name": "Mansfield Memorial Museum",
        "street": "34 Park Ave W, Mansfield, OH 44902",
        "country": "United States",
        "state": "Ohio",
        "county": "",
        "city": "",
        "website": "https://themansfieldmuseum.com/",
        "description": "Home of Elektro - one of the first ever robots displayed at the 1939 New Yorks's World Fair. Elektro could walk, talk, smoke a cigarette, blow a balloon, move its arms and fingers, and be enslaved by humanity (something that we will surely never come to regret). This museum isn't the best museum, I just really like Elektro.",
        "worth stopping": true,
        "museum": true
      },
      "geometry": {
        "type": "Point",
        "coordinates": [
          -82.5169573,
          40.7586085
        ]
      }
    },
    {
      "type": "Feature",
      "properties": {
        "uid": "49",
        "name": "Crystal Cave",
        "street": "978 Catawba Ave, Put-In-Bay, OH 43456",
        "country": "United States",
        "state": "Ohio",
        "county": "",
        "city": "Put-In-Bay",
        "website": "http://www.heinemanswinery.com/crystalcave.asp",
        "description": "Ever wanted to stand in a cave surrounded by crystals like some kind of ancient enchanter? Now you can! There's another cave across the street if you are waiting for the ferry to take you back to the mainland.",
        "worth stopping": true
      },
      "geometry": {
        "type": "Point",
        "coordinates": [
          -82.8269727,
          41.6466009
        ]
      }
    },
    {
      "type": "Feature",
      "properties": {
        "uid": "50",
        "name": "Ohio Caverns",
        "street": "2210 OH-245, West Liberty, OH 43357",
        "country": "United States",
        "state": "Ohio",
        "county": "",
        "city": "",
        "website": "",
        "description": "Most caves are all the same color of rock, the caves at Ohio caverns are multi-colored and still wet and drippy. Considering how flat everything is in the area this is the most exciting geological feature for nearly 100 miles in every direction. Breathe it in.",
        "worth stopping": true
      },
      "geometry": {
        "type": "Point",
        "coordinates": [
          -83.6972116,
          40.2383151
        ]
      }
    },
    {
      "type": "Feature",
      "properties": {
        "uid": "51",
        "name": "Camden Park",
        "street": "5000 Waverly Rd, Huntington, WV 25704",
        "country": "United States",
        "state": "West Virginia",
        "county": "",
        "city": "Huntington",
        "website": "http://www.camdenpark.com/",
        "description": "A scooby-doo esque run-down amusement park built on a native American burial ground. The back seat of the Big Dipper rollercoaster was one of the few times I felt close to death. A fun time for the whole family.",
        "worth stopping": true,
        "amusement park": true
      },
      "geometry": {
        "type": "Point",
        "coordinates": [
          -82.5312097,
          38.3972274
        ]
      }
    },
    {
      "type": "Feature",
      "properties": {
        "uid": "52",
        "name": "New River Gorge National Park and Preserve",
        "street": "162 Visitor Center Rd, Lansing, WV 25862",
        "country": "United States",
        "state": "West Virginia",
        "county": "",
        "city": "",
        "website": "http://www.nps.gov/neri/planyourvisit/crvc.htm",
        "description": "A deep river gorge in Appalachia with whitewater rafting and a bridge that is impossibly large to comprehend until you see it in person. When you see the wispy clouds moving through gorge and over the mountaintops you'll understand why this had to be made into a national park.",
        "worth stopping": true,
        "park": true
      },
      "geometry": {
        "type": "Point",
        "coordinates": [
          -81.0762644,
          38.0700724
        ]
      }
    },
    {
      "type": "Feature",
      "properties": {
        "uid": "53",
        "name": "The Greenbrier",
        "street": "101 W Main St, White Sulphur Springs, WV 24986",
        "country": "United States",
        "state": "West Virginia",
        "county": "",
        "city": "",
        "website": "http://www.greenbrier.com/",
        "description": "Congress built a bunker to protect itself from nuclear war under a luxury hotel. As of this moment this is the only United State continuity of government complex availible for tour, as Raven Rock Mountain Complex, Mount Weather Emergency Operations Center, and Warrenton Training Center continue to be in use to this day.",
        "worth stopping": true
      },
      "geometry": {
        "type": "Point",
        "coordinates": [
          -80.3086979,
          37.7858382
        ]
      }
    },
    {
      "type": "Feature",
      "properties": {
        "uid": "54",
        "name": "Seneca Rocks",
        "street": "WV-28, Seneca Rocks, WV 26884",
        "country": "United States",
        "state": "West Virginia",
        "county": "",
        "city": "",
        "website": "https://www.fs.usda.gov/r09/monongahela/recreation/seneca-rocks-discovery-center",
        "description": "Seneca Rocks are a concerningly thin scenic rock crag rising 900ft above the Monongahela National Forest. There's a 2-hour hike to an observation deck at the top that provides a good view of the surrounding area.",
        "worth stopping": true,
        "park": true
      },
      "geometry": {
        "type": "Point",
        "coordinates": [
          -79.365461,
          38.8361166
        ]
      }
    },
    {
      "type": "Feature",
      "properties": {
        "uid": "55",
        "name": "West Virginia State Museum",
        "street": "Building 9, 1900 Kanawha Blvd E #435, Charleston, WV 25305",
        "country": "United States",
        "state": "West Virginia",
        "county": "",
        "city": "Charleston",
        "website": "https://wvculture.org/explore/wv-state-museum/",
        "description": "Most state museums try to be inoffensive and lack coherent vision. By comparison, the West Virginia state museum offers a compelling walk through the state's history where visitors quite literally advance through time as they move through the exam. See how the state developed from woodland, to native history, to arrival of European settlers, to the U.S. Civil War, to mining and the present.",
        "worth stopping": true,
        "museum": true
      },
      "geometry": {
        "type": "Point",
        "coordinates": [
          -81.6140164,
          38.3377176
        ]
      }
    },
    {
      "type": "Feature",
      "properties": {
        "uid": "56",
        "name": "Cathedral Falls",
        "street": "US-60, Gauley Bridge, WV 25085",
        "country": "United States",
        "state": "West Virginia",
        "county": "",
        "city": "",
        "website": "http://visitwv.com/cathedral-falls/",
        "description": "Cathedrals falls is tucked away next to a very unsafe to drive on feeling highway. However, you can walk right up to the 60ft tall waterfall, and the cliffs are shaped in such a way they arch over your head like the roof of a cathedral. Pictures do not do it justice.",
        "worth stopping": true,
        "park": true
      },
      "geometry": {
        "type": "Point",
        "coordinates": [
          -81.1789879,
          38.1543662
        ]
      }
    },
    {
      "type": "Feature",
      "properties": {
        "uid": "57",
        "name": "Beckley Exhibition Coal Mine",
        "street": "513 Ewart Ave, Beckley, WV 25801",
        "country": "",
        "state": "",
        "county": "",
        "city": "",
        "website": "https://beckley.org/coal-mine/",
        "description": "Beckley Exhibition Coal Mine opened in 1889, ceased operations in 1953, and became the world's first public museum entirely dedicated to coal mining in 1962. Yes, you can go into the coal mine, and you get there in a tiny train.",
        "worth stopping": true,
        "museum": true
      },
      "geometry": {
        "type": "Point",
        "coordinates": [
          -81.1963594,
          37.784393
        ]
      }
    },
    {
      "type": "Feature",
      "properties": {
        "uid": "58",
        "name": "Lost World Caverns",
        "street": "907 Lost World Rd, Lewisburg, WV 24901",
        "country": "United States",
        "state": "West Virginia",
        "county": "",
        "city": "",
        "website": "http://www.lostworldcaverns.com/",
        "description": "A cavern with formations so fancy they are registered as a National Natural Landmark. There's a half mile loop of walking worth to do. The caverns are so spacious that self-guided tours are available.",
        "worth stopping": true,
        "cave": true
      },
      "geometry": {
        "type": "Point",
        "coordinates": [
          -80.4469487,
          37.8327141
        ]
      }
    },
    {
      "type": "Feature",
      "properties": {
        "uid": "59",
        "name": "Isle Royale National Park",
        "street": "",
        "country": "",
        "state": "",
        "county": "",
        "city": "",
        "website": "https://www.nps.gov/isro/index.htm",
        "description": "The largest island of the largest freshwater lake in the world by surface area. 45 miles of jagged granite shores, abandoned copper mines, and untouched wilderness. Only accessible by boat or aircraft - there are no vehicles allowed on the island, so I hope you love hiking.",
        "worth stopping": true,
        "park": true
      },
      "geometry": {
        "type": "Point",
        "coordinates": [
          -88.4865545,
          48.1460565
        ]
      }
    },
    {
      "type": "Feature",
      "properties": {
        "uid": "60",
        "name": "Museum of Science and Industry",
        "street": "5700 S DuSable Lake Shore Dr, Chicago, IL 60637",
        "country": "United States",
        "state": "Illinois",
        "county": "",
        "city": "Chicago",
        "website": "https://www.msichicago.org/",
        "description": "A permanent structure from the 1893 World's Columbian Exposition houses a stainless-steel passenger train, a german U-boat, space capsules, an extensive model railroad, a mockup of old chicago streets, and a mockup coal mine.",
        "worth stopping": true,
        "museum": true
      },
      "geometry": {
        "type": "Point",
        "coordinates": [
          -87.5829636,
          41.7905503
        ]
      }
    },
    {
      "type": "Feature",
      "properties": {
        "uid": "61",
        "name": "Field Museum",
        "street": "https://www.fieldmuseum.org/",
        "country": "",
        "state": "Illinois",
        "county": "",
        "city": "Chicago",
        "website": "https://www.fieldmuseum.org/",
        "description": "The Field Museum of Natural History features multiple sections each expansive and detailed enough to be museums in their own right. Set aside an entire day for the Field Museum, it is mind-bogglingly extensive. These sections include but are not limited to:\n<br>\n1.) Fossils in dioramas organized by era, with funny little extinction event placards breaking up the sections as you walk through them.There is a nearly complete fossil of a T-Rex.\n<br>\n2.) Artifacts and houses from the pacific islands collected by a rich guy who was determined to capture how life was lived before Europeans showed up. \n<br>\n3.) a three story replica of an egyptian tomb complete with mummies.\n<br>",
        "worth stopping": true,
        "museum": true
      },
      "geometry": {
        "type": "Point",
        "coordinates": [
          -87.617163,
          41.8662142
        ]
      }
    },
    {
      "type": "Feature",
      "properties": {
        "uid": "62",
        "name": "The Art Institute of Chicago",
        "street": "111 S Michigan Ave, Chicago, IL 60603",
        "country": "",
        "state": "",
        "county": "",
        "city": "",
        "website": "https://www.artic.edu/",
        "description": "300,000 paintings seems like a reasonable number of paintings to justify an art museum. Occupying a building from the 1893 World's Columbian Exposition, the Art Institute of Chicago has got the painting made of a bunch of dots and the one with the farmers and the pitchfork.",
        "worth stopping": true,
        "museum": true
      },
      "geometry": {
        "type": "Point",
        "coordinates": [
          -87.6226614,
          41.879609
        ]
      }
    },
    {
      "type": "Feature",
      "properties": {
        "uid": "63",
        "name": "Shedd Aquarium",
        "street": "1200 S DuSable Lake Shore Dr, Chicago, IL 60605",
        "country": "",
        "state": "",
        "county": "",
        "city": "",
        "website": "https://www.sheddaquarium.org/",
        "description": "Having an Aquarium full of piranhas, electric eels, sea turtles, sharks, dolpins, belugas, sea otters, sea lions, and penguins is made all the more impressive by the fact that this aquarium is 700 miles from the ocean.",
        "worth stopping": true
      },
      "geometry": {
        "type": "Point",
        "coordinates": [
          -87.6140499,
          41.8676014
        ]
      }
    },
    {
      "type": "Feature",
      "properties": {
        "uid": "64",
        "name": "Chicago History Museum",
        "street": "1601 N Clark St, Chicago, IL 60614",
        "country": "",
        "state": "",
        "county": "",
        "city": "",
        "website": "https://www.chicagohistory.org/",
        "description": "If you ever dreamed of seeing Chicago burning, this museum has a diorama to help you visualize it. Chicago burned to the ground in 1871 and just can't seem to let it go. This museum also features some antique cars from the elevated rail network.",
        "worth stopping": true,
        "museum": true
      },
      "geometry": {
        "type": "Point",
        "coordinates": [
          -87.6318981,
          41.9117702
        ]
      }
    },
    {
      "type": "Feature",
      "properties": {
        "uid": "65",
        "name": "Institute for the Study of Ancient Cultures Museum",
        "street": "1155 E 58th St, Chicago, IL 60637",
        "country": "",
        "state": "",
        "county": "",
        "city": "",
        "website": "https://isac.uchicago.edu/",
        "description": "Have you ever said: \"Wow, I sure wish someone other than the British took the ancient treasures of the middle east\". Well, you're in luck.",
        "worth stopping": true,
        "museum": true
      },
      "geometry": {
        "type": "Point",
        "coordinates": [
          -87.5976305,
          41.7892456
        ]
      }
    },
    {
      "type": "Feature",
      "properties": {
        "uid": "66",
        "name": "Par King Skill Golf",
        "street": "21711 N Milwaukee Ave, Lincolnshire, IL 60069",
        "country": "",
        "state": "",
        "county": "",
        "city": "",
        "website": "http://par-king.com/",
        "description": "This is the mini-golf course from cartoons in real life. It's got golf loopdeloop, golf rollercoaster, golf statute of liberty, golf roulette wheel, and golf taking the stairs at Sears Tower.",
        "worth stopping": true
      },
      "geometry": {
        "type": "Point",
        "coordinates": [
          -87.9250883,
          42.1791156
        ]
      }
    },
    {
      "type": "Feature",
      "properties": {
        "uid": "67",
        "name": "Illinois Railway Museum",
        "street": "7000 Olson Rd, Union, IL 60180",
        "country": "United States",
        "state": "Illinois",
        "county": "",
        "city": "Union",
        "website": "http://www.irm.org/",
        "description": "This is THE train museum in the USA. The largest railroad museum in the United States. 11 Storage barns on an 80 acre campus with over 200 trains and 500 pieces of rolling stock in total. Trains, interurbans, trolleys, buses, you name it.",
        "worth stopping": true,
        "museum": true
      },
      "geometry": {
        "type": "Point",
        "coordinates": [
          -88.5277562,
          42.22742
        ]
      }
    },
    {
      "type": "Feature",
      "properties": {
        "uid": "68",
        "name": "Caterpillar Visitors Center",
        "street": "110 SW Washington St, Peoria, IL 61602",
        "country": "",
        "state": "",
        "county": "",
        "city": "",
        "website": "https://www.caterpillar.com/en/company/visitors-center.html",
        "description": "Remember the yellow construction equipment toys you played with as a kid? This is where the actual equipment is made. Come and see all of it at the Caterpillar Visitors Center. Come on, you know you've always wanted to sit in the cab of a 2-story dump truck.",
        "worth stopping": true
      },
      "geometry": {
        "type": "Point",
        "coordinates": [
          -89.5890744,
          40.6900016
        ]
      }
    },
    {
      "type": "Feature",
      "properties": {
        "uid": "69",
        "name": "Abraham Lincoln Presidential Library and Museum",
        "street": "212 N 6th St, Springfield, IL 62701",
        "country": "United States",
        "state": "Illinois",
        "county": "",
        "city": "",
        "website": "https://presidentlincoln.illinois.gov/",
        "description": "Illinois loves Abraham Lincoln so much they made the official state slogan \"Land of Lincoln\" and forgot they voted for Stephen Douglas for Senator instead. This museum covers everything about Abraham Lincoln, including a diorama of the part of his life where he went to the theater. Presidential security has come a long way since Lincoln, with only 6 other sitting or former Presidents being shot, representing 22% of all Presidents since Lincoln. Progress.",
        "worth stopping": true,
        "museum": true
      },
      "geometry": {
        "type": "Point",
        "coordinates": [
          -89.6472106,
          39.803343
        ]
      }
    },
    {
      "type": "Feature",
      "properties": {
        "uid": "70",
        "name": "Cahokia Mounds State Historic Site",
        "street": "30 Ramey St, Collinsville, IL 62234",
        "country": "",
        "state": "",
        "county": "",
        "city": "",
        "website": "https://cahokiamounds.org/",
        "description": "80 Earthen mounds with some standing over 100ft tall mark the site of a pre-Columbian city where 20,000 people once lived in 1100AD. The largest pre-Columbian earthen Construction in the United States and a UNESCO World Heritage Site. Cahokia was abandoned long before European settlers arrived and gave nearby St. Louis the nickname \"Mound City\".",
        "worth stopping": true,
        "park": true
      },
      "geometry": {
        "type": "Point",
        "coordinates": [
          -90.0620856,
          38.6607213
        ]
      }
    },
    {
      "type": "Feature",
      "properties": {
        "uid": "71",
        "name": "Garden of the Gods Recreation Area",
        "street": "",
        "country": "",
        "state": "",
        "county": "",
        "city": "",
        "website": "https://www.fs.usda.gov/r09/shawnee/recreation/garden-gods-recreation-area",
        "description": "The observation trail in the Garden of the Gods Recreation Area of Shawnee National Forest leads to a cliff with sandstone rock formations and panoramnic views of the surrounding area. There's also other interesting hiking trails in the area.",
        "worth stopping": true,
        "park": true
      },
      "geometry": {
        "type": "Point",
        "coordinates": [
          -88.3847232,
          37.6046357
        ]
      }
    },
    {
      "type": "Feature",
      "properties": {
        "uid": "72",
        "name": "Cave In Rock State Park",
        "street": "1 New State Park Rd, Cave-In-Rock, IL 62919",
        "country": "",
        "state": "",
        "county": "",
        "city": "",
        "website": "",
        "description": "A 55ft tall keyhole shaped cave on the limestone bluffs of the Ohio River. Cave-In-Rock was the first State Park of Illinois which should give you an idea that people have always thought it was pretty neat.",
        "worth stopping": true,
        "park": true
      },
      "geometry": {
        "type": "Point",
        "coordinates": [
          -88.1605937,
          37.4675692
        ]
      }
    },
    {
      "type": "Feature",
      "properties": {
        "uid": "73",
        "name": "Little Grand Canyon - Shawnee National Forest",
        "street": "",
        "country": "",
        "state": "",
        "county": "",
        "city": "",
        "website": "",
        "description": "Spiderweb like limestone formations and seasonal waterfalls in this canyon in Shawnee National Forest. It's a 2.9 mile hike, so expect to take 3-4 hours.",
        "worth stopping": true,
        "park": true
      },
      "geometry": {
        "type": "Point",
        "coordinates": [
          -89.3948267,
          37.6805944
        ]
      }
    },
    {
      "type": "Feature",
      "properties": {
        "uid": "74",
        "name": "Starved Rock State Park",
        "street": "2678 East 873 Road, Oglesby, IL 61348",
        "country": "",
        "state": "Illinois",
        "county": "",
        "city": "",
        "website": "https://dnr.illinois.gov/parks/park.starvedrock.html",
        "description": "Canyons, waterfalls, and cliffs that look much bigger in person than they do in photos all at this state park which boasts very easy to do hikes.",
        "worth stopping": true,
        "park": true
      },
      "geometry": {
        "type": "Point",
        "coordinates": [
          -88.9932585,
          41.3206586
        ]
      }
    },
    {
      "type": "Feature",
      "properties": {
        "uid": "75",
        "name": "PEZ Visitor Center",
        "street": "35 Prindle Hill Rd, Orange, CT 06477",
        "country": "",
        "state": "",
        "county": "",
        "city": "",
        "website": "https://us.pez.com/pages/admission",
        "description": "PEZ history, PEZ Trivia, PEZ factory, PEZ merchandise, the PEZ motorcycle, and the world's largest PEZ dispenser. The ultimate PEZ collection at the PEZ factory.",
        "worth stopping": true
      },
      "geometry": {
        "type": "Point",
        "coordinates": [
          -72.9975056,
          41.2636759
        ]
      }
    },
    {
      "type": "Feature",
      "properties": {
        "uid": "76",
        "name": "Submarine Force Library and Museum",
        "street": "1 Crystal Lake Rd, Groton, CT 06340",
        "country": "",
        "state": "",
        "county": "",
        "city": "",
        "website": "https://ussnautilus.org/",
        "description": "Connecticut has long been home to the United States' Submarine Force since the Electric Boat Company set up their modern facility in Groton in 1931. Tour the USS Nautilus - the world's first nuclear submarine. The museum also features a replica of the Turtle, a WW2 Kairyu-class Japanese midget submarine, the X-1 American Midget Submarine",
        "worth stopping": true,
        "museum": true
      },
      "geometry": {
        "type": "Point",
        "coordinates": [
          -72.0870498,
          41.3874668
        ]
      }
    },
    {
      "type": "Feature",
      "properties": {
        "uid": "77",
        "name": "Mystic Seaport Museum",
        "street": "75 Greenmanville Ave, Mystic, CT 06355",
        "country": "",
        "state": "",
        "county": "",
        "city": "",
        "website": "https://www.mysticseaport.org/",
        "description": "This is THE whaling museum. It's not just a whaling ship museum, it's an entire whaling industry living-history town.  Featuring the Charles W. Morgan- the last wooden sailing ship, along with 14 other historic ships, and 39 historic buildings.",
        "worth stopping": true,
        "museum": true
      },
      "geometry": {
        "type": "Point",
        "coordinates": [
          -71.9643972,
          41.361237
        ]
      }
    },
    {
      "type": "Feature",
      "properties": {
        "uid": "78",
        "name": "Mystic Aquarium",
        "street": "55 Coogan Blvd, Mystic, CT 06355",
        "country": "",
        "state": "",
        "county": "",
        "city": "",
        "website": "https://www.mysticaquarium.org/",
        "description": "Listen, they have Japanese Spider Crabs. There's belugas and sea lions too if you're into that.",
        "worth stopping": true
      },
      "geometry": {
        "type": "Point",
        "coordinates": [
          -71.9534709,
          41.3733877
        ]
      }
    },
    {
      "type": "Feature",
      "properties": {
        "uid": "79",
        "name": "Danbury Railway Museum",
        "street": "120 White St, Danbury, CT 06810",
        "country": "",
        "state": "",
        "county": "",
        "city": "",
        "website": "http://www.danburyrail.org/",
        "description": "A fine collection of self-propelled 1950s interurban cars, including a Mack Truck railbus. Yes you can just wander around inside them as they sit decaying, and it is beautiful.",
        "worth stopping": true,
        "museum": true
      },
      "geometry": {
        "type": "Point",
        "coordinates": [
          -73.4505809,
          41.3978353
        ]
      }
    },
    {
      "type": "Feature",
      "properties": {
        "uid": "80",
        "name": "Connecticut Trolley Museum",
        "street": "58 N Rd #9606, East Windsor, CT 06088",
        "country": "",
        "state": "",
        "county": "",
        "city": "",
        "website": "http://www.ct-trolley.org/",
        "description": "Your admission includes unlimited rides on the trolleys through the the 2.4 mile heritage railroad.",
        "local attractions": true,
        "museum": true
      },
      "geometry": {
        "type": "Point",
        "coordinates": [
          -72.5946739,
          41.9313874
        ]
      }
    },
    {
      "type": "Feature",
      "properties": {
        "uid": "81",
        "name": "Shoreline Trolley Museum",
        "street": "17 River St, East Haven, CT 06512",
        "country": "",
        "state": "",
        "county": "",
        "city": "",
        "website": "http://www.shorelinetrolley.org/",
        "description": "Trolleys in a swamp - the opposite of their natural habitat. 100 streetcars at the United State's oldest operating trolley museum - including the oldest operating trolley in the United States. However, you only get to tour the trolley barns briefly after a mandatory 1.5 mile scenic trolley ride through the marsh.",
        "worth stopping": true,
        "museum": true
      },
      "geometry": {
        "type": "Point",
        "coordinates": [
          -72.8631286,
          41.2742829
        ]
      }
    },
    {
      "type": "Feature",
      "properties": {
        "uid": "82",
        "name": "Magnolia Wilds",
        "street": "11342 LA-955, Ethel, LA 70730",
        "country": "",
        "state": "",
        "county": "",
        "city": "",
        "website": "http://www.magnoliawilds.com/",
        "description": "You can swim with otters and pet capybaras - for a hefty price. To simplify: otters are slippery, and capybaras feel like petting a broom. There, saved you $300.00.",
        "worth stopping": true
      },
      "geometry": {
        "type": "Point",
        "coordinates": [
          -91.0544757,
          30.8117549
        ]
      }
    },
    {
      "type": "Feature",
      "properties": {
        "uid": "83",
        "name": "Louisiana Old Governors Mansion",
        "street": "502 North Blvd, Baton Rouge, LA 70802",
        "country": "",
        "state": "",
        "county": "",
        "city": "",
        "website": "https://www.laogm.org/",
        "description": "Governor Huey Long commissioned a governor's mansion that was identical to the whitehouse to bolster his presidential ambitions. Long was assassinated in 1936, but the mansion remains as a Louisiana version of the highest office on Earth.",
        "worth stopping": true,
        "museum": true
      },
      "geometry": {
        "type": "Point",
        "coordinates": [
          -91.1849778,
          30.446521
        ]
      }
    },
    {
      "type": "Feature",
      "properties": {
        "uid": "84",
        "name": "National WWII Museum",
        "street": "945 Magazine St, New Orleans, LA 70130",
        "country": "",
        "state": "",
        "county": "",
        "city": "",
        "website": "https://www.nationalww2museum.org/",
        "description": "World War Two: The Museum. If you need to get people as interested in World War II as you are - this is the place.",
        "worth stopping": true,
        "museum": true
      },
      "geometry": {
        "type": "Point",
        "coordinates": [
          -90.0705661,
          29.9431326
        ]
      }
    },
    {
      "type": "Feature",
      "properties": {
        "uid": "85",
        "name": "Albacore Park",
        "street": "569 Submarine Way, Portsmouth, NH 03801",
        "country": "",
        "state": "",
        "county": "",
        "city": "",
        "website": "",
        "description": "The USS Albacore was the first U.S. submarine designed for purely underwater performance, utilizing a teardrop hall and high tensile steel that became the standard worldwide. The submarine now rests entirely on dry land nearby the naval shipyard where she was built.",
        "worth stopping": true,
        "museum": true
      },
      "geometry": {
        "type": "Point",
        "coordinates": [
          -70.7669592,
          43.0822176
        ]
      }
    },
    {
      "type": "Feature",
      "properties": {
        "uid": "86",
        "name": "Mt. Washington State Park",
        "street": "1598 Mt Washington Auto Rd, MOUNT WASHINGTON, NH 03589",
        "country": "",
        "state": "",
        "county": "",
        "city": "",
        "website": "",
        "description": "Mt. Washington is the place on earth with the highest recorded wind speed of 231 mph. Despite being the windiest place on earth, you can drive your car to the top because this is America.",
        "worth stopping": true,
        "park": true
      },
      "geometry": {
        "type": "Point",
        "coordinates": [
          -71.3032291,
          44.2703753
        ]
      }
    },
    {
      "type": "Feature",
      "properties": {
        "uid": "87",
        "name": "Mount Washington Cog Railway",
        "street": "",
        "country": "",
        "state": "",
        "county": "",
        "city": "",
        "website": "",
        "description": "The \"Railway to the Moon\". The second steepest rack-railway in the world goes to the top of the windiest mountain in the world. Tickets are expensive, and most of the cool steam locomotives have been replaced with diesels - but the few steam engines that remain are really really cool. Come on, you know you want to take a train up a mountain.",
        "worth stopping": true
      },
      "geometry": {
        "type": "Point",
        "coordinates": [
          -71.3509622,
          44.2699777
        ]
      }
    },
    {
      "type": "Feature",
      "properties": {
        "uid": "88",
        "name": "Franconia Notch State Park",
        "street": "Flume Gorge Visitor Center, 852 Daniel Webster Hwy, Lincoln, NH 03251",
        "country": "",
        "state": "",
        "county": "",
        "city": "",
        "website": "tateparks.org/find-parks-trails/franconia-notch-state-park",
        "description": "Franconia Notch used to be home of New Hampshire's Old Man of The Mountain, a mountain face that looked like a human face profile. However, that collapsed. The waterfalls and flume gorge are still well worth a visit.",
        "worth stopping": true,
        "park": true
      },
      "geometry": {
        "type": "Point",
        "coordinates": [
          -71.6799332,
          44.0971088
        ]
      }
    },
    {
      "type": "Feature",
      "properties": {
        "uid": "89",
        "name": "Shelburne Museum",
        "street": "6000 Shelburne Rd, Shelburne, VT 05482",
        "country": "",
        "state": "",
        "county": "",
        "city": "",
        "website": "https://www.shelburnemuseum.org/",
        "description": "The heiress to the US Sugar monopoly decided to spend all her money collecting everything. She hauled a steamship and lighthouse up a mountain, and relocated her New York Apartment. Come see the museum of museums, stuffed animals, carved circus creatures, guns, art, carriages, and creepy dolls - all at the Shelburne Museum.",
        "worth stopping": true,
        "museum": true
      },
      "geometry": {
        "type": "Point",
        "coordinates": [
          -73.2320329,
          44.373059
        ]
      }
    },
    {
      "type": "Feature",
      "properties": {
        "uid": "90",
        "name": "Ben and Jerrys Factory",
        "street": "1281 Waterbury-Stowe Rd Route 100, Waterbury, VT 05676",
        "country": "",
        "state": "",
        "county": "",
        "city": "",
        "website": "https://www.benjerry.com/waterbury",
        "description": "The promised land where Ben and Jerrys ice cream is made. The ice cream tastes better here because it is fresh, and the factory tour is amazing.",
        "worth stopping": true
      },
      "geometry": {
        "type": "Point",
        "coordinates": [
          -72.7400525,
          44.3529123
        ]
      }
    },
    {
      "type": "Feature",
      "properties": {
        "uid": "91",
        "name": "Seashore Trolley Museum",
        "street": "195 Log Cabin Rd, Kennebunkport, ME 04046",
        "country": "United States",
        "state": "Maine",
        "county": "",
        "city": "",
        "website": "http://www.trolleymuseum.org/",
        "description": "This is THE trolley museum. The largest electric railway museum in the world with over 250 mass transit vehicles. The volunteers at the Seashore Trolley museum have been hoarding more buses, trolleys, and trains in the woods than they can realistically restore. Have you ever wanted to see literal piles of buses and trolleys? This is the place.",
        "worth stopping": true,
        "museum": true
      },
      "geometry": {
        "type": "Point",
        "coordinates": [
          -70.4894971,
          43.4092731
        ]
      }
    },
    {
      "type": "Feature",
      "properties": {
        "uid": "92",
        "name": "Acadia National Park",
        "street": "",
        "country": "United States",
        "state": "Maine",
        "county": "",
        "city": "",
        "website": "https://www.nps.gov/acad/index.htm",
        "description": "Acadia National Park covers Mt. Desert Island, a scenic granite island with beautiful mountains and lakes - and only one beach. Come see a pair of mountains called The Bubbles which for some reason the national park service is in denial of what they really look like. The hiking here is gorgeous, fun, and relatively easy. Due to its popularity, you will need reservations to go up Mt. Cadillac by car.",
        "worth stopping": true,
        "park": true
      },
      "geometry": {
        "type": "Point",
        "coordinates": [
          -68.2736636,
          44.3385444
        ]
      }
    },
    {
      "type": "Feature",
      "properties": {
        "uid": "93",
        "name": "Island Cruises Bass Harbor",
        "street": "12 Little Island Way, Bass Harbor, ME 04653",
        "country": "United States",
        "state": "Maine",
        "county": "",
        "city": "Bass Harbor",
        "website": "http://www.bassharborcruises.com/",
        "description": "A lobster boat has been converted into a tourist cruise vessel and will show you all the best islands nearby Acadia while regalling you with local history. The views are stunning, the sealife is abundant , and they will pull up a lobster trap so you can see how it's done.",
        "worth stopping": true
      },
      "geometry": {
        "type": "Point",
        "coordinates": [
          -68.3472314,
          44.2395936
        ]
      }
    },
    {
      "type": "Feature",
      "properties": {
        "uid": "94",
        "name": "Nervous Nellies Jams and Jellies",
        "street": "598 Sunshine Rd, Deer Isle, ME 04627",
        "country": "",
        "state": "",
        "county": "",
        "city": "",
        "website": "http://www.nervousnellies.com/",
        "description": "Terrifying scrap folk art in the foggy Maine woods. That may be downplaying it, the artist built an entire facade town complete with tower, castle, church, saloon, jail, inn, and much much more. The jam is pretty good too.",
        "worth stopping": true
      },
      "geometry": {
        "type": "Point",
        "coordinates": [
          -68.6232883,
          44.2127331
        ]
      }
    },
    {
      "type": "Feature",
      "properties": {
        "uid": "95",
        "name": "Fort Knox and Penobscot Narrows Observatory",
        "street": "740 Ft Knox Rd, Prospect, ME 04981",
        "country": "",
        "state": "Maine",
        "county": "",
        "city": "",
        "website": "https://www.fortknoxmaine.com/",
        "description": "This place definitely feels haunted. Damp granite fortifications with a commanding view of the Penobscot narrows make Fort Knox well worth visiting.  Additionally, there is an observatory on the nearby bridge that gives a good view of all of Maine.",
        "worth stopping": true,
        "museum": true
      },
      "geometry": {
        "type": "Point",
        "coordinates": [
          -68.8025445,
          44.5662561
        ]
      }
    },
    {
      "type": "Feature",
      "properties": {
        "uid": "96",
        "name": "Grafton Notch State Park",
        "street": "",
        "country": "",
        "state": "",
        "county": "",
        "city": "",
        "website": "https://apps.web.maine.gov/cgi-bin/online/doc/parksearch/details.pl?park_id=1",
        "description": "Dramatic swooshing waterfalls, boulder covered hiking trails,  and imposing granite mountains in the backwoods of Maine. Screw Auger Falls in particular looks like it was carved out of a fantasy novel.",
        "worth stopping": true,
        "park": true
      },
      "geometry": {
        "type": "Point",
        "coordinates": [
          -70.9062173,
          44.5721897
        ]
      }
    },
    {
      "type": "Feature",
      "properties": {
        "uid": "97",
        "name": "Baxter State Park",
        "street": "",
        "country": "",
        "state": "",
        "county": "",
        "city": "",
        "website": "https://baxterstatepark.org/",
        "description": "Baxter State Park is home of Mt. Katahdin, the tallest mountain in Maine (5,267ft). The mountains in the park are especially prominent, and the nearby lakes just make them look taller.",
        "worth stopping": true,
        "park": true
      },
      "geometry": {
        "type": "Point",
        "coordinates": [
          -68.9453418,
          46.0259036
        ]
      }
    }
  ]
}